<?xml version="1.0" encoding="UTF-8"?>
<ndm xmlns:xsi="http://www.w3.org/2001/XMLSchema-instance" xsi:noNamespaceSchemaLocation="https://sanaregistry.org/r/ndmxml_unqualified/ndmxml-2.0.0-master-2.0.xsd">
<omm id="CCSDS_OMM_VERS" version="2.0">
<header><CREATION_DATE/><ORIGINATOR/></header><body><segment><metadata><OBJECT_NAME>ONEWEB-0058</OBJECT_NAME><OBJECT_ID>2020-008AG</OBJECT_ID><CENTER_NAME>EARTH</CENTER_NAME><REF_FRAME>TEME</REF_FRAME><TIME_SYSTEM>UTC</TIME_SYSTEM><MEAN_ELEMENT_THEORY>SGP4</MEAN_ELEMENT_THEORY></metadata><data><meanElements><EPOCH>2023-11-19T18:58:57.227232</EPOCH><MEAN_MOTION>13.10377308</MEAN_MOTION><ECCENTRICITY>.0001637</ECCENTRICITY><INCLINATION>87.8929</INCLINATION><RA_OF_ASC_NODE>223.0712</RA_OF_ASC_NODE><ARG_OF_PERICENTER>70.1707</ARG_OF_PERICENTER><MEAN_ANOMALY>289.9597</MEAN_ANOMALY></meanElements><tleParameters><EPHEMERIS_TYPE>0</EPHEMERIS_TYPE><CLASSIFICATION_TYPE>U</CLASSIFICATION_TYPE><NORAD_CAT_ID>45161</NORAD_CAT_ID><ELEMENT_SET_NO>999</ELEMENT_SET_NO><REV_AT_EPOCH>18526</REV_AT_EPOCH><BSTAR>.18579E-2</BSTAR><MEAN_MOTION_DOT>.661E-5</MEAN_MOTION_DOT><MEAN_MOTION_DDOT>0</MEAN_MOTION_DDOT></tleParameters></data></segment></body></omm>
<omm id="CCSDS_OMM_VERS" version="2.0">
<header><CREATION_DATE/><ORIGINATOR/></header><body><segment><metadata><OBJECT_NAME>ONEWEB-0059</OBJECT_NAME><OBJECT_ID>2020-008AH</OBJECT_ID><CENTER_NAME>EARTH</CENTER_NAME><REF_FRAME>TEME</REF_FRAME><TIME_SYSTEM>UTC</TIME_SYSTEM><MEAN_ELEMENT_THEORY>SGP4</MEAN_ELEMENT_THEORY></metadata><data><meanElements><EPOCH>2023-11-19T18:54:06.151680</EPOCH><MEAN_MOTION>13.10373830</MEAN_MOTION><ECCENTRICITY>.0001498</ECCENTRICITY><INCLINATION>87.8926</INCLINATION><RA_OF_ASC_NODE>223.0429</RA_OF_ASC_NODE><ARG_OF_PERICENTER>70.2275</ARG_OF_PERICENTER><MEAN_ANOMALY>289.9013</MEAN_ANOMALY></meanElements><tleParameters><EPHEMERIS_TYPE>0</EPHEMERIS_TYPE><CLASSIFICATION_TYPE>U</CLASSIFICATION_TYPE><NORAD_CAT_ID>45162</NORAD_CAT_ID><ELEMENT_SET_NO>999</ELEMENT_SET_NO><REV_AT_EPOCH>18516</REV_AT_EPOCH><BSTAR>.15143E-2</BSTAR><MEAN_MOTION_DOT>.541E-5</MEAN_MOTION_DOT><MEAN_MOTION_DDOT>0</MEAN_MOTION_DDOT></tleParameters></data></segment></body></omm>
<omm id="CCSDS_OMM_VERS" version="2.0">
<header><CREATION_DATE/><ORIGINATOR/></header><body><segment><metadata><OBJECT_NAME>ONEWEB-0062</OBJECT_NAME><OBJECT_ID>2020-008AJ</OBJECT_ID><CENTER_NAME>EARTH</CENTER_NAME><REF_FRAME>TEME</REF_FRAME><TIME_SYSTEM>UTC</TIME_SYSTEM><MEAN_ELEMENT_THEORY>SGP4</MEAN_ELEMENT_THEORY></metadata><data><meanElements><EPOCH>2023-11-19T19:33:51.740352</EPOCH><MEAN_MOTION>13.10370415</MEAN_MOTION><ECCENTRICITY>.0001716</ECCENTRICITY><INCLINATION>87.8925</INCLINATION><RA_OF_ASC_NODE>223.0246</RA_OF_ASC_NODE><ARG_OF_PERICENTER>74.2334</ARG_OF_PERICENTER><MEAN_ANOMALY>285.8982</MEAN_ANOMALY></meanElements><tleParameters><EPHEMERIS_TYPE>0</EPHEMERIS_TYPE><CLASSIFICATION_TYPE>U</CLASSIFICATION_TYPE><NORAD_CAT_ID>45163</NORAD_CAT_ID><ELEMENT_SET_NO>999</ELEMENT_SET_NO><REV_AT_EPOCH>18503</REV_AT_EPOCH><BSTAR>-.58655E-3</BSTAR><MEAN_MOTION_DOT>-.192E-5</MEAN_MOTION_DOT><MEAN_MOTION_DDOT>0</MEAN_MOTION_DDOT></tleParameters></data></segment></body></omm>
<omm id="CCSDS_OMM_VERS" version="2.0">
<header><CREATION_DATE/><ORIGINATOR/></header><body><segment><metadata><OBJECT_NAME>ONEWEB-0065</OBJECT_NAME><OBJECT_ID>2020-008AK</OBJECT_ID><CENTER_NAME>EARTH</CENTER_NAME><REF_FRAME>TEME</REF_FRAME><TIME_SYSTEM>UTC</TIME_SYSTEM><MEAN_ELEMENT_THEORY>SGP4</MEAN_ELEMENT_THEORY></metadata><data><meanElements><EPOCH>2023-11-19T19:01:06.567168</EPOCH><MEAN_MOTION>13.10374794</MEAN_MOTION><ECCENTRICITY>.000176</ECCENTRICITY><INCLINATION>87.8930</INCLINATION><RA_OF_ASC_NODE>223.0260</RA_OF_ASC_NODE><ARG_OF_PERICENTER>69.0127</ARG_OF_PERICENTER><MEAN_ANOMALY>291.1189</MEAN_ANOMALY></meanElements><tleParameters><EPHEMERIS_TYPE>0</EPHEMERIS_TYPE><CLASSIFICATION_TYPE>U</CLASSIFICATION_TYPE><NORAD_CAT_ID>45164</NORAD_CAT_ID><ELEMENT_SET_NO>999</ELEMENT_SET_NO><REV_AT_EPOCH>18472</REV_AT_EPOCH><BSTAR>.1851E-2</BSTAR><MEAN_MOTION_DOT>.659E-5</MEAN_MOTION_DOT><MEAN_MOTION_DDOT>0</MEAN_MOTION_DDOT></tleParameters></data></segment></body></omm>
<omm id="CCSDS_OMM_VERS" version="2.0">
<header><CREATION_DATE/><ORIGINATOR/></header><body><segment><metadata><OBJECT_NAME>ONEWEB-0066</OBJECT_NAME><OBJECT_ID>2020-020A</OBJECT_ID><CENTER_NAME>EARTH</CENTER_NAME><REF_FRAME>TEME</REF_FRAME><TIME_SYSTEM>UTC</TIME_SYSTEM><MEAN_ELEMENT_THEORY>SGP4</MEAN_ELEMENT_THEORY></metadata><data><meanElements><EPOCH>2023-11-19T22:35:18.716640</EPOCH><MEAN_MOTION>13.11415552</MEAN_MOTION><ECCENTRICITY>.0001143</ECCENTRICITY><INCLINATION>87.9001</INCLINATION><RA_OF_ASC_NODE>207.8864</RA_OF_ASC_NODE><ARG_OF_PERICENTER>66.3674</ARG_OF_PERICENTER><MEAN_ANOMALY>293.7574</MEAN_ANOMALY></meanElements><tleParameters><EPHEMERIS_TYPE>0</EPHEMERIS_TYPE><CLASSIFICATION_TYPE>U</CLASSIFICATION_TYPE><NORAD_CAT_ID>45424</NORAD_CAT_ID><ELEMENT_SET_NO>999</ELEMENT_SET_NO><REV_AT_EPOCH>17944</REV_AT_EPOCH><BSTAR>-.14662E-2</BSTAR><MEAN_MOTION_DOT>-.507E-5</MEAN_MOTION_DOT><MEAN_MOTION_DDOT>0</MEAN_MOTION_DDOT></tleParameters></data></segment></body></omm>
<omm id="CCSDS_OMM_VERS" version="2.0">
<header><CREATION_DATE/><ORIGINATOR/></header><body><segment><metadata><OBJECT_NAME>ONEWEB-0067</OBJECT_NAME><OBJECT_ID>2020-020B</OBJECT_ID><CENTER_NAME>EARTH</CENTER_NAME><REF_FRAME>TEME</REF_FRAME><TIME_SYSTEM>UTC</TIME_SYSTEM><MEAN_ELEMENT_THEORY>SGP4</MEAN_ELEMENT_THEORY></metadata><data><meanElements><EPOCH>2023-11-19T23:09:13.307040</EPOCH><MEAN_MOTION>13.11419434</MEAN_MOTION><ECCENTRICITY>.0001724</ECCENTRICITY><INCLINATION>87.8989</INCLINATION><RA_OF_ASC_NODE>207.8537</RA_OF_ASC_NODE><ARG_OF_PERICENTER>65.9009</ARG_OF_PERICENTER><MEAN_ANOMALY>294.2299</MEAN_ANOMALY></meanElements><tleParameters><EPHEMERIS_TYPE>0</EPHEMERIS_TYPE><CLASSIFICATION_TYPE>U</CLASSIFICATION_TYPE><NORAD_CAT_ID>45425</NORAD_CAT_ID><ELEMENT_SET_NO>999</ELEMENT_SET_NO><REV_AT_EPOCH>17950</REV_AT_EPOCH><BSTAR>.22108E-3</BSTAR><MEAN_MOTION_DOT>.91E-6</MEAN_MOTION_DOT><MEAN_MOTION_DDOT>0</MEAN_MOTION_DDOT></tleParameters></data></segment></body></omm>
<omm id="CCSDS_OMM_VERS" version="2.0">
<header><CREATION_DATE/><ORIGINATOR/></header><body><segment><metadata><OBJECT_NAME>ONEWEB-0080</OBJECT_NAME><OBJECT_ID>2020-020C</OBJECT_ID><CENTER_NAME>EARTH</CENTER_NAME><REF_FRAME>TEME</REF_FRAME><TIME_SYSTEM>UTC</TIME_SYSTEM><MEAN_ELEMENT_THEORY>SGP4</MEAN_ELEMENT_THEORY></metadata><data><meanElements><EPOCH>2023-11-19T21:55:34.798080</EPOCH><MEAN_MOTION>13.11419605</MEAN_MOTION><ECCENTRICITY>.0001188</ECCENTRICITY><INCLINATION>87.8998</INCLINATION><RA_OF_ASC_NODE>207.8948</RA_OF_ASC_NODE><ARG_OF_PERICENTER>72.8099</ARG_OF_PERICENTER><MEAN_ANOMALY>287.3159</MEAN_ANOMALY></meanElements><tleParameters><EPHEMERIS_TYPE>0</EPHEMERIS_TYPE><CLASSIFICATION_TYPE>U</CLASSIFICATION_TYPE><NORAD_CAT_ID>45426</NORAD_CAT_ID><ELEMENT_SET_NO>999</ELEMENT_SET_NO><REV_AT_EPOCH>17946</REV_AT_EPOCH><BSTAR>.13347E-2</BSTAR><MEAN_MOTION_DOT>.486E-5</MEAN_MOTION_DOT><MEAN_MOTION_DDOT>0</MEAN_MOTION_DDOT></tleParameters></data></segment></body></omm>
<omm id="CCSDS_OMM_VERS" version="2.0">
<header><CREATION_DATE/><ORIGINATOR/></header><body><segment><metadata><OBJECT_NAME>ONEWEB-0090</OBJECT_NAME><OBJECT_ID>2020-020D</OBJECT_ID><CENTER_NAME>EARTH</CENTER_NAME><REF_FRAME>TEME</REF_FRAME><TIME_SYSTEM>UTC</TIME_SYSTEM><MEAN_ELEMENT_THEORY>SGP4</MEAN_ELEMENT_THEORY></metadata><data><meanElements><EPOCH>2023-11-19T22:21:17.754336</EPOCH><MEAN_MOTION>13.11415064</MEAN_MOTION><ECCENTRICITY>.0001399</ECCENTRICITY><INCLINATION>87.8994</INCLINATION><RA_OF_ASC_NODE>207.8690</RA_OF_ASC_NODE><ARG_OF_PERICENTER>76.1699</ARG_OF_PERICENTER><MEAN_ANOMALY>283.9584</MEAN_ANOMALY></meanElements><tleParameters><EPHEMERIS_TYPE>0</EPHEMERIS_TYPE><CLASSIFICATION_TYPE>U</CLASSIFICATION_TYPE><NORAD_CAT_ID>45427</NORAD_CAT_ID><ELEMENT_SET_NO>999</ELEMENT_SET_NO><REV_AT_EPOCH>17943</REV_AT_EPOCH><BSTAR>-.11996E-2</BSTAR><MEAN_MOTION_DOT>-.412E-5</MEAN_MOTION_DOT><MEAN_MOTION_DDOT>0</MEAN_MOTION_DDOT></tleParameters></data></segment></body></omm>
<omm id="CCSDS_OMM_VERS" version="2.0">
<header><CREATION_DATE/><ORIGINATOR/></header><body><segment><metadata><OBJECT_NAME>ONEWEB-0061</OBJECT_NAME><OBJECT_ID>2020-020E</OBJECT_ID><CENTER_NAME>EARTH</CENTER_NAME><REF_FRAME>TEME</REF_FRAME><TIME_SYSTEM>UTC</TIME_SYSTEM><MEAN_ELEMENT_THEORY>SGP4</MEAN_ELEMENT_THEORY></metadata><data><meanElements><EPOCH>2023-11-19T17:38:29.028480</EPOCH><MEAN_MOTION>13.11419386</MEAN_MOTION><ECCENTRICITY>.0001562</ECCENTRICITY><INCLINATION>87.9003</INCLINATION><RA_OF_ASC_NODE>207.9101</RA_OF_ASC_NODE><ARG_OF_PERICENTER>71.5976</ARG_OF_PERICENTER><MEAN_ANOMALY>288.5322</MEAN_ANOMALY></meanElements><tleParameters><EPHEMERIS_TYPE>0</EPHEMERIS_TYPE><CLASSIFICATION_TYPE>U</CLASSIFICATION_TYPE><NORAD_CAT_ID>45428</NORAD_CAT_ID><ELEMENT_SET_NO>999</ELEMENT_SET_NO><REV_AT_EPOCH>17936</REV_AT_EPOCH><BSTAR>.41462E-3</BSTAR><MEAN_MOTION_DOT>.16E-5</MEAN_MOTION_DOT><MEAN_MOTION_DDOT>0</MEAN_MOTION_DDOT></tleParameters></data></segment></body></omm>

</ndm>
